{"type":"FeatureCollection","features":[{"type":"Feature","properties":{"name":"Afternoon Run","source":"Strava GPX","point_count":2172,"start_time":"2026-06-02T00:22:34Z","end_time":"2026-06-02T00:58:45Z"},"geometry":{"type":"LineString","coordinates":[[-117.529309,34.128586],[-117.529305,34.128584],[-117.529302,34.128583],[-117.529298,34.128581],[-117.529295,34.128579],[-117.529251,34.128569],[-117.529226,34.128564],[-117.529186,34.128562],[-117.52917,34.128562],[-117.529154,34.128562],[-117.529116,34.128566],[-117.5291,34.128568],[-117.529085,34.128571],[-117.529054,34.128579],[-117.529044,34.128581],[-117.529023,34.128585],[-117.529002,34.12859],[-117.52898,34.128594],[-117.528948,34.128602],[-117.528937,34.128605],[-117.528902,34.128616],[-117.528889,34.128622],[-117.528875,34.128627],[-117.528844,34.128639],[-117.528833,34.128645],[-117.528799,34.128662],[-117.528786,34.128669],[-117.528773,34.128675],[-117.52874,34.128691],[-117.528727,34.128699],[-117.528715,34.128706],[-117.528689,34.128725],[-117.52868,34.128731],[-117.528651,34.128756],[-117.528639,34.128768],[-117.528626,34.128779],[-117.528597,34.128801],[-117.528587,34.128807],[-117.528571,34.128818],[-117.528556,34.12883],[-117.528541,34.128844],[-117.528522,34.128865],[-117.528515,34.128872],[-117.528494,34.128896],[-117.528487,34.128906],[-117.528479,34.128915],[-117.528467,34.12893],[-117.528454,34.128945],[-117.528433,34.128972],[-117.528424,34.128984],[-117.528416,34.128995],[-117.5284,34.129023],[-117.528393,34.129034],[-117.528387,34.129046],[-117.528372,34.129073],[-117.528367,34.129082],[-117.528353,34.129112],[-117.528347,34.129125],[-117.528342,34.129137],[-117.528328,34.129164],[-117.528323,34.129172],[-117.528302,34.1292],[-117.528293,34.129212],[-117.528283,34.129223],[-117.528257,34.129243],[-117.528248,34.129249],[-117.528219,34.129265],[-117.528208,34.129272],[-117.528197,34.129279],[-117.528185,34.129307],[-117.528183,34.12932],[-117.528181,34.129333],[-117.52818,34.129364],[-117.528179,34.129374],[-117.528178,34.129408],[-117.528178,34.129421],[-117.528178,34.129435],[-117.52818,34.129465],[-117.528181,34.129475],[-117.528183,34.12951],[-117.528183,34.129524],[-117.528184,34.129538],[-117.528184,34.12957],[-117.528185,34.12958],[-117.528187,34.129599],[-117.528188,34.129619],[-117.528188,34.12964],[-117.528188,34.129651],[-117.528188,34.129662],[-117.52819,34.129698],[-117.528191,34.129713],[-117.528192,34.129728],[-117.528191,34.129763],[-117.52819,34.129777],[-117.528189,34.12979],[-117.528188,34.129819],[-117.528187,34.129829],[-117.528186,34.129862],[-117.528186,34.129876],[-117.528185,34.129889],[-117.528183,34.129917],[-117.528182,34.129926],[-117.528181,34.129958],[-117.528181,34.129971],[-117.528181,34.129984],[-117.528181,34.130014],[-117.52818,34.130023],[-117.528177,34.130055],[-117.528176,34.130068],[-117.528175,34.13008],[-117.528174,34.130111],[-117.528173,34.130123],[-117.528173,34.130136],[-117.528175,34.130165],[-117.528176,34.130175],[-117.528177,34.130209],[-117.528176,34.130222],[-117.528176,34.130236],[-117.528173,34.130266],[-117.528172,34.130275],[-117.528164,34.130306],[-117.528158,34.130317],[-117.528153,34.130329],[-117.528124,34.130344],[-117.528111,34.130347],[-117.528063,34.130349],[-117.528044,34.13035],[-117.528025,34.13035],[-117.527987,34.130355],[-117.527974,34.130356],[-117.52793,34.130359],[-117.527912,34.130359],[-117.527893,34.130359],[-117.527843,34.130355],[-117.527824,34.130353],[-117.527804,34.130351],[-117.527768,34.130345],[-117.527757,34.130343],[-117.52772,34.130338],[-117.527706,34.130337],[-117.527691,34.130335],[-117.527657,34.130333],[-117.527646,34.130332],[-117.527609,34.13033],[-117.527594,34.130331],[-117.52758,34.130331],[-117.527547,34.130333],[-117.527535,34.130333],[-117.527494,34.130333],[-117.527477,34.130333],[-117.52746,34.130333],[-117.527419,34.130333],[-117.527404,34.130334],[-117.527388,34.130334],[-117.527352,34.130333],[-117.52734,34.130332],[-117.527298,34.130331],[-117.527282,34.130332],[-117.527265,34.130332],[-117.527228,34.130337],[-117.527216,34.130338],[-117.527175,34.130343],[-117.527159,34.130345],[-117.527142,34.130347],[-117.527103,34.130351],[-117.527089,34.130352],[-117.527047,34.130354],[-117.527031,34.130356],[-117.527014,34.130357],[-117.526978,34.13036],[-117.526966,34.130361],[-117.526926,34.130363],[-117.526911,34.130363],[-117.526896,34.130363],[-117.526858,34.130359],[-117.526843,34.130358],[-117.526828,34.130356],[-117.526791,34.130352],[-117.526779,34.130351],[-117.526735,34.13035],[-117.526717,34.130351],[-117.5267,34.130351],[-117.526664,34.130354],[-117.526652,34.130354],[-117.526614,34.130354],[-117.526599,34.130355],[-117.526585,34.130355],[-117.526554,34.130358],[-117.526543,34.130359],[-117.526508,34.13036],[-117.526494,34.130361],[-117.52648,34.130361],[-117.526443,34.130358],[-117.526427,34.130357],[-117.526412,34.130355],[-117.526378,34.130351],[-117.526367,34.13035],[-117.52633,34.130349],[-117.526315,34.13035],[-117.5263,34.13035],[-117.526265,34.130352],[-117.526253,34.130352],[-117.526214,34.130348],[-117.526198,34.130347],[-117.526183,34.130345],[-117.526148,34.130343],[-117.526137,34.130342],[-117.526097,34.13034],[-117.52608,34.130339],[-117.526064,34.130338],[-117.526029,34.130337],[-117.526017,34.130337],[-117.52598,34.13034],[-117.525966,34.13034],[-117.525951,34.130341],[-117.525914,34.130342],[-117.525898,34.130343],[-117.525883,34.130344],[-117.525847,34.130349],[-117.525834,34.13035],[-117.525795,34.130356],[-117.525779,34.130357],[-117.525764,34.130359],[-117.525731,34.13036],[-117.52572,34.13036],[-117.525681,34.13036],[-117.525664,34.13036],[-117.525648,34.13036],[-117.525613,34.130361],[-117.525601,34.130361],[-117.525561,34.130362],[-117.525546,34.130361],[-117.52553,34.130361],[-117.525488,34.130359],[-117.525472,34.130358],[-117.525455,34.130357],[-117.525418,34.130356],[-117.525406,34.130356],[-117.525368,34.130356],[-117.525352,34.130356],[-117.525337,34.130356],[-117.525301,34.130355],[-117.525289,34.130355],[-117.525249,34.130351],[-117.525234,34.13035],[-117.525218,34.130348],[-117.525182,34.130345],[-117.525171,34.130344],[-117.52513,34.130341],[-117.525114,34.130339],[-117.525097,34.130338],[-117.525058,34.130336],[-117.525046,34.130335],[-117.52501,34.130332],[-117.524996,34.130331],[-117.524982,34.13033],[-117.524948,34.130334],[-117.524934,34.130337],[-117.52492,34.130339],[-117.524889,34.130349],[-117.524879,34.130353],[-117.524847,34.130369],[-117.524834,34.130375],[-117.524822,34.130382],[-117.524796,34.130398],[-117.524787,34.130403],[-117.524757,34.130425],[-117.524746,34.130434],[-117.524735,34.130444],[-117.524721,34.130471],[-117.524717,34.130479],[-117.52471,34.130509],[-117.524708,34.130522],[-117.524705,34.130535],[-117.524698,34.130571],[-117.524696,34.130584],[-117.524693,34.130598],[-117.52469,34.130629],[-117.524689,34.130639],[-117.52469,34.130672],[-117.524691,34.130686],[-117.524693,34.130699],[-117.524698,34.130729],[-117.5247,34.130739],[-117.524705,34.130773],[-117.524706,34.130787],[-117.524708,34.130801],[-117.52471,34.130832],[-117.52471,34.130842],[-117.524708,34.130877],[-117.524708,34.130892],[-117.524707,34.130906],[-117.524707,34.130938],[-117.524706,34.130948],[-117.524705,34.130983],[-117.524704,34.130998],[-117.524703,34.131012],[-117.524702,34.131047],[-117.524701,34.131061],[-117.524701,34.131075],[-117.524701,34.131107],[-117.524701,34.131118],[-117.524703,34.131153],[-117.524704,34.131166],[-117.524704,34.13118],[-117.524702,34.13121],[-117.5247,34.131219],[-117.524689,34.13125],[-117.524683,34.131261],[-117.524676,34.131273],[-117.524654,34.131298],[-117.524646,34.131305],[-117.524618,34.131329],[-117.524605,34.131337],[-117.524593,34.131346],[-117.52456,34.131364],[-117.524546,34.131371],[-117.524533,34.131377],[-117.524506,34.131393],[-117.524498,34.131399],[-117.524474,34.131423],[-117.524466,34.131432],[-117.524457,34.131442],[-117.524438,34.131468],[-117.524431,34.131476],[-117.52441,34.131502],[-117.524403,34.131512],[-117.524395,34.131522],[-117.524382,34.131545],[-117.524378,34.131553],[-117.524373,34.131584],[-117.524372,34.131597],[-117.524372,34.13161],[-117.524375,34.131639],[-117.524376,34.131649],[-117.524377,34.13168],[-117.524378,34.131692],[-117.524378,34.131704],[-117.524378,34.131735],[-117.524379,34.131749],[-117.524379,34.131762],[-117.524377,34.131793],[-117.524376,34.131803],[-117.524372,34.131836],[-117.524371,34.131848],[-117.524369,34.131861],[-117.524367,34.131888],[-117.524366,34.131897],[-117.524367,34.131929],[-117.524367,34.131942],[-117.524368,34.131955],[-117.52437,34.131984],[-117.524371,34.131993],[-117.524373,34.132027],[-117.524374,34.132041],[-117.524375,34.132054],[-117.524381,34.132085],[-117.524382,34.132098],[-117.524384,34.13211],[-117.524385,34.132139],[-117.524384,34.132149],[-117.524384,34.132183],[-117.524385,34.132196],[-117.524385,34.13221],[-117.524385,34.132239],[-117.524386,34.132248],[-117.524385,34.132281],[-117.524384,34.132295],[-117.524382,34.132308],[-117.524376,34.132338],[-117.524374,34.132347],[-117.524369,34.132381],[-117.524369,34.132394],[-117.524368,34.132408],[-117.524367,34.132439],[-117.524366,34.13245],[-117.524366,34.132487],[-117.524366,34.132501],[-117.524366,34.132516],[-117.524366,34.132549],[-117.524366,34.132563],[-117.524366,34.132576],[-117.524366,34.132608],[-117.524365,34.132618],[-117.524363,34.132651],[-117.524362,34.132665],[-117.524361,34.132678],[-117.524361,34.132707],[-117.524362,34.132717],[-117.524362,34.13275],[-117.524362,34.132763],[-117.524361,34.132777],[-117.524356,34.132807],[-117.524355,34.132817],[-117.524357,34.132851],[-117.524358,34.132865],[-117.52436,34.132878],[-117.524362,34.132913],[-117.524362,34.132927],[-117.524362,34.132941],[-117.52436,34.132973],[-117.524359,34.132983],[-117.524358,34.133017],[-117.524358,34.133031],[-117.524358,34.133044],[-117.52436,34.133072],[-117.524362,34.133081],[-117.524368,34.133112],[-117.524371,34.133124],[-117.524373,34.133136],[-117.524377,34.133165],[-117.524379,34.133175],[-117.524384,34.133207],[-117.524385,34.133219],[-117.524387,34.133232],[-117.524389,34.133261],[-117.52439,34.133271],[-117.524391,34.133305],[-117.52439,34.133319],[-117.52439,34.133333],[-117.524386,34.133365],[-117.524384,34.133379],[-117.524382,34.133392],[-117.524378,34.133423],[-117.524377,34.133434],[-117.524371,34.133469],[-117.524369,34.133482],[-117.524366,34.133496],[-117.524363,34.133528],[-117.524362,34.133538],[-117.524363,34.133572],[-117.524364,34.133586],[-117.524364,34.1336],[-117.524364,34.133632],[-117.524365,34.133642],[-117.524366,34.133675],[-117.524367,34.133688],[-117.524367,34.133701],[-117.524369,34.133733],[-117.52437,34.133746],[-117.524371,34.133759],[-117.524374,34.133789],[-117.524375,34.133799],[-117.524378,34.133833],[-117.524378,34.133846],[-117.524379,34.133859],[-117.524379,34.133888],[-117.524378,34.133897],[-117.524376,34.133929],[-117.524376,34.133941],[-117.524375,34.133954],[-117.524371,34.133984],[-117.52437,34.133994],[-117.524366,34.134029],[-117.524365,34.134042],[-117.524363,34.134056],[-117.524361,34.134089],[-117.52436,34.1341],[-117.524361,34.134135],[-117.524362,34.134149],[-117.524362,34.134163],[-117.524362,34.134197],[-117.524362,34.134211],[-117.524362,34.134224],[-117.52436,34.134255],[-117.524359,34.134265],[-117.524356,34.134297],[-117.524354,34.134311],[-117.524353,34.134324],[-117.524353,34.134357],[-117.524352,34.134368],[-117.524353,34.134401],[-117.524355,34.134414],[-117.524356,34.134427],[-117.524361,34.134458],[-117.524363,34.134468],[-117.524366,34.134487],[-117.524369,34.134504],[-117.524371,34.134521],[-117.524379,34.134553],[-117.524382,34.134566],[-117.524386,34.134579],[-117.524393,34.134608],[-117.524395,34.134617],[-117.524397,34.134649],[-117.524397,34.134661],[-117.524397,34.134674],[-117.524396,34.134702],[-117.524395,34.134711],[-117.524392,34.134741],[-117.52439,34.134753],[-117.524389,34.134765],[-117.524386,34.134795],[-117.524385,34.134805],[-117.524382,34.134838],[-117.524382,34.13485],[-117.524381,34.134863],[-117.52438,34.134892],[-117.52438,34.134902],[-117.524378,34.134936],[-117.524377,34.13495],[-117.524376,34.134964],[-117.524373,34.134999],[-117.524372,34.135012],[-117.524371,34.135026],[-117.52437,34.135057],[-117.524369,34.135067],[-117.524367,34.135102],[-117.524366,34.135115],[-117.524365,34.135129],[-117.524364,34.135161],[-117.524364,34.135171],[-117.524362,34.135204],[-117.524362,34.135217],[-117.524361,34.13523],[-117.524361,34.135259],[-117.52436,34.135268],[-117.524361,34.135301],[-117.524362,34.135313],[-117.524363,34.135326],[-117.524362,34.135357],[-117.524362,34.13537],[-117.524361,34.135382],[-117.52436,34.13541],[-117.524359,34.13542],[-117.524359,34.135453],[-117.524358,34.135467],[-117.524358,34.13548],[-117.524356,34.135508],[-117.524355,34.135517],[-117.524348,34.135543],[-117.524344,34.135552],[-117.52434,34.135562],[-117.524331,34.13557],[-117.524325,34.135571],[-117.524323,34.135563],[-117.524327,34.135546],[-117.524332,34.135525],[-117.524336,34.135492],[-117.524337,34.13548],[-117.524336,34.135444],[-117.524334,34.135431],[-117.524333,34.135417],[-117.524326,34.135384],[-117.524323,34.135371],[-117.52432,34.135358],[-117.524314,34.135328],[-117.524313,34.135317],[-117.524309,34.135283],[-117.524307,34.13527],[-117.524306,34.135256],[-117.524305,34.135226],[-117.524305,34.135215],[-117.524305,34.135179],[-117.524305,34.135165],[-117.524305,34.13515],[-117.524306,34.135119],[-117.524306,34.135109],[-117.524307,34.135074],[-117.524307,34.13506],[-117.524307,34.135046],[-117.524307,34.13501],[-117.524307,34.134996],[-117.524307,34.134981],[-117.524309,34.13495],[-117.524309,34.13494],[-117.524309,34.134905],[-117.524308,34.134892],[-117.524308,34.134878],[-117.524306,34.134846],[-117.524306,34.134836],[-117.524304,34.134801],[-117.524303,34.134787],[-117.524303,34.134773],[-117.524304,34.134742],[-117.524304,34.134731],[-117.524303,34.134693],[-117.524303,34.134679],[-117.524302,34.134664],[-117.5243,34.134632],[-117.5243,34.134621],[-117.524296,34.134584],[-117.524295,34.13457],[-117.524293,34.134555],[-117.524289,34.134519],[-117.524288,34.134506],[-117.524287,34.134492],[-117.524288,34.134462],[-117.524288,34.134452],[-117.524289,34.134419],[-117.52429,34.134405],[-117.52429,34.134391],[-117.524292,34.134361],[-117.524292,34.134351],[-117.524294,34.134317],[-117.524294,34.134303],[-117.524295,34.134289],[-117.524297,34.134258],[-117.524298,34.134247],[-117.524302,34.134213],[-117.524303,34.134199],[-117.524305,34.134185],[-117.524308,34.13415],[-117.52431,34.134137],[-117.524311,34.134123],[-117.524316,34.134092],[-117.524317,34.134081],[-117.524323,34.134046],[-117.524326,34.134032],[-117.524328,34.134018],[-117.524329,34.133986],[-117.524329,34.133975],[-117.524329,34.133939],[-117.524329,34.133925],[-117.524329,34.13391],[-117.524327,34.133877],[-117.524327,34.133865],[-117.524323,34.133827],[-117.524322,34.133812],[-117.52432,34.133797],[-117.524319,34.133764],[-117.524319,34.133752],[-117.524319,34.133718],[-117.52432,34.133705],[-117.52432,34.133692],[-117.524321,34.133661],[-117.524321,34.133648],[-117.524322,34.133635],[-117.524323,34.133603],[-117.524323,34.133592],[-117.524322,34.133556],[-117.524322,34.133542],[-117.524321,34.133528],[-117.524321,34.133495],[-117.524321,34.133485],[-117.524321,34.133448],[-117.524321,34.133434],[-117.52432,34.133419],[-117.524318,34.133388],[-117.524318,34.133377],[-117.524318,34.133341],[-117.524318,34.133327],[-117.524318,34.133313],[-117.52432,34.133278],[-117.524321,34.133265],[-117.524322,34.133251],[-117.524324,34.133221],[-117.524325,34.133211],[-117.524329,34.133178],[-117.524331,34.133164],[-117.524332,34.13315],[-117.524331,34.133119],[-117.524331,34.133108],[-117.52433,34.133074],[-117.524329,34.133059],[-117.524328,34.133045],[-117.524324,34.13301],[-117.524323,34.132998],[-117.524318,34.132957],[-117.524317,34.132941],[-117.524315,34.132925],[-117.524312,34.132891],[-117.524312,34.132879],[-117.524313,34.132841],[-117.524313,34.132825],[-117.524314,34.13281],[-117.524316,34.132774],[-117.524316,34.132759],[-117.524317,34.132745],[-117.524319,34.132713],[-117.524319,34.132702],[-117.524319,34.132665],[-117.524319,34.132651],[-117.524319,34.132636],[-117.524317,34.132604],[-117.524317,34.132593],[-117.524314,34.132557],[-117.524314,34.132543],[-117.524313,34.132529],[-117.52431,34.132498],[-117.52431,34.132487],[-117.524311,34.132453],[-117.524313,34.132439],[-117.524314,34.132426],[-117.524317,34.132395],[-117.524317,34.132381],[-117.524318,34.132368],[-117.524319,34.132337],[-117.524319,34.132326],[-117.524321,34.132291],[-117.524322,34.132276],[-117.524323,34.132262],[-117.524325,34.132227],[-117.524325,34.132216],[-117.524324,34.132177],[-117.524323,34.132161],[-117.524323,34.132146],[-117.524322,34.132113],[-117.524322,34.132102],[-117.524321,34.132065],[-117.52432,34.132049],[-117.52432,34.132034],[-117.524321,34.132001],[-117.524321,34.13199],[-117.524321,34.131954],[-117.524321,34.13194],[-117.524321,34.131925],[-117.524321,34.131888],[-117.52432,34.131874],[-117.52432,34.131859],[-117.524317,34.131826],[-117.524317,34.131815],[-117.524316,34.13178],[-117.524316,34.131765],[-117.524315,34.131751],[-117.524313,34.131719],[-117.524313,34.131708],[-117.524313,34.13167],[-117.524312,34.131655],[-117.524312,34.13164],[-117.524314,34.131605],[-117.524314,34.131593],[-117.524321,34.131555],[-117.524326,34.13154],[-117.52433,34.131525],[-117.524352,34.131491],[-117.524361,34.131478],[-117.524371,34.131465],[-117.524397,34.131438],[-117.524406,34.131428],[-117.524439,34.131398],[-117.524452,34.131386],[-117.524465,34.131374],[-117.524495,34.131349],[-117.524504,34.131341],[-117.524534,34.131316],[-117.524547,34.131306],[-117.524559,34.131296],[-117.524587,34.131275],[-117.524596,34.131267],[-117.524619,34.131241],[-117.524627,34.13123],[-117.524634,34.131219],[-117.524644,34.13119],[-117.524647,34.13118],[-117.524652,34.131144],[-117.524654,34.13113],[-117.524655,34.131116],[-117.524659,34.131082],[-117.52466,34.131068],[-117.524662,34.131055],[-117.524665,34.131027],[-117.524665,34.131017],[-117.524665,34.130984],[-117.524664,34.130971],[-117.524664,34.130958],[-117.524663,34.130929],[-117.524663,34.130919],[-117.524664,34.130886],[-117.524664,34.130872],[-117.524665,34.130859],[-117.524666,34.130829],[-117.524666,34.13082],[-117.524665,34.130787],[-117.524664,34.130773],[-117.524664,34.13076],[-117.524663,34.130727],[-117.524662,34.130714],[-117.524661,34.1307],[-117.524659,34.130669],[-117.524658,34.130658],[-117.524657,34.130624],[-117.524657,34.130611],[-117.524657,34.130597],[-117.524659,34.130567],[-117.524659,34.130557],[-117.524661,34.130522],[-117.524662,34.130509],[-117.524663,34.130495],[-117.524671,34.130466],[-117.524674,34.130456],[-117.524691,34.130426],[-117.524699,34.130414],[-117.524707,34.130402],[-117.524732,34.130376],[-117.524741,34.130367],[-117.524776,34.130343],[-117.52479,34.130335],[-117.524805,34.130326],[-117.524843,34.130306],[-117.52486,34.1303],[-117.524876,34.130293],[-117.524916,34.130284],[-117.524929,34.130281],[-117.524975,34.13028],[-117.524994,34.130281],[-117.525012,34.130282],[-117.525053,34.130288],[-117.525066,34.13029],[-117.525111,34.130298],[-117.52513,34.1303],[-117.525148,34.130303],[-117.525187,34.130308],[-117.5252,34.13031],[-117.525241,34.130316],[-117.525258,34.130319],[-117.525274,34.130321],[-117.525314,34.130325],[-117.525329,34.130326],[-117.525345,34.130328],[-117.525381,34.130334],[-117.525393,34.130336],[-117.525432,34.130343],[-117.525448,34.130344],[-117.525464,34.130346],[-117.525498,34.130345],[-117.525509,34.130344],[-117.52555,34.130342],[-117.525567,34.130341],[-117.525584,34.13034],[-117.525624,34.130339],[-117.525637,34.130338],[-117.525688,34.130336],[-117.525712,34.130334],[-117.525737,34.130333],[-117.525773,34.130331],[-117.525785,34.13033],[-117.525825,34.130327],[-117.525842,34.130327],[-117.525858,34.130326],[-117.5259,34.130326],[-117.525916,34.130326],[-117.525933,34.130326],[-117.525971,34.130326],[-117.525984,34.130326],[-117.526026,34.130326],[-117.526042,34.130326],[-117.526059,34.130326],[-117.526095,34.130325],[-117.526106,34.130324],[-117.52614,34.130324],[-117.526148,34.130323],[-117.526157,34.130323],[-117.526195,34.130322],[-117.526208,34.130322],[-117.526253,34.130322],[-117.52627,34.130323],[-117.526288,34.130323],[-117.52633,34.130325],[-117.526347,34.130325],[-117.526363,34.130326],[-117.526401,34.130327],[-117.526413,34.130327],[-117.526453,34.130328],[-117.526469,34.130329],[-117.526485,34.13033],[-117.526519,34.130332],[-117.526531,34.130332],[-117.526571,34.130333],[-117.526587,34.130333],[-117.526603,34.130333],[-117.526641,34.130331],[-117.526654,34.13033],[-117.526698,34.13033],[-117.526715,34.13033],[-117.526732,34.13033],[-117.526769,34.130329],[-117.526781,34.130328],[-117.526822,34.130327],[-117.526839,34.130326],[-117.526856,34.130326],[-117.526898,34.130326],[-117.526916,34.130326],[-117.526933,34.130326],[-117.526969,34.130327],[-117.526982,34.130327],[-117.527022,34.130326],[-117.527037,34.130326],[-117.527053,34.130325],[-117.52709,34.130324],[-117.527102,34.130323],[-117.527143,34.130322],[-117.527159,34.130322],[-117.527175,34.130322],[-117.52721,34.130322],[-117.527222,34.130322],[-117.527263,34.130321],[-117.52728,34.13032],[-117.527296,34.13032],[-117.527337,34.130319],[-117.527354,34.130319],[-117.52737,34.130319],[-117.527406,34.130319],[-117.527419,34.130319],[-117.527463,34.130318],[-117.527482,34.130318],[-117.5275,34.130317],[-117.52754,34.130316],[-117.527553,34.130316],[-117.527594,34.130317],[-117.527611,34.130318],[-117.527627,34.130318],[-117.527663,34.130321],[-117.527676,34.130322],[-117.527717,34.130325],[-117.527734,34.130325],[-117.52775,34.130326],[-117.527786,34.130327],[-117.527798,34.130327],[-117.527837,34.130329],[-117.527853,34.130329],[-117.527868,34.13033],[-117.527905,34.130332],[-117.527921,34.130332],[-117.527936,34.130332],[-117.527971,34.13033],[-117.527983,34.130329],[-117.52802,34.130325],[-117.528035,34.130323],[-117.52805,34.130321],[-117.528086,34.130315],[-117.528097,34.130313],[-117.52813,34.130306],[-117.528141,34.130302],[-117.528152,34.130299],[-117.528159,34.130278],[-117.528159,34.130268],[-117.528151,34.130233],[-117.528148,34.13022],[-117.528144,34.130206],[-117.528138,34.130173],[-117.528135,34.130161],[-117.528133,34.130148],[-117.52813,34.13012],[-117.528129,34.13011],[-117.528125,34.130078],[-117.528123,34.130065],[-117.528122,34.130052],[-117.528121,34.130022],[-117.528121,34.130013],[-117.52812,34.129981],[-117.52812,34.129967],[-117.52812,34.129954],[-117.528122,34.129923],[-117.528123,34.129912],[-117.528127,34.129877],[-117.528129,34.129864],[-117.528131,34.12985],[-117.528133,34.129819],[-117.528133,34.129809],[-117.528135,34.129773],[-117.528136,34.129759],[-117.528137,34.129744],[-117.528135,34.129706],[-117.528134,34.12969],[-117.528132,34.129675],[-117.528126,34.129641],[-117.528124,34.129629],[-117.52812,34.129592],[-117.528118,34.129577],[-117.528117,34.129562],[-117.528119,34.129529],[-117.52812,34.129518],[-117.528127,34.129485],[-117.52813,34.129472],[-117.528132,34.129459],[-117.528135,34.129429],[-117.528136,34.129418],[-117.528139,34.129382],[-117.528141,34.129369],[-117.528142,34.129355],[-117.528148,34.129322],[-117.528151,34.12931],[-117.528154,34.129297],[-117.528164,34.129268],[-117.528167,34.129258],[-117.528188,34.12923],[-117.528198,34.129221],[-117.528209,34.129211],[-117.528237,34.129193],[-117.528246,34.129187],[-117.528267,34.129157],[-117.528273,34.129142],[-117.52828,34.129128],[-117.528291,34.129097],[-117.528295,34.129086],[-117.52831,34.129055],[-117.528317,34.129043],[-117.528324,34.129031],[-117.528342,34.129003],[-117.528348,34.128994],[-117.528369,34.128964],[-117.528377,34.128953],[-117.528385,34.128941],[-117.528406,34.128911],[-117.528415,34.128898],[-117.528424,34.128886],[-117.528447,34.12886],[-117.528455,34.128851],[-117.52848,34.12882],[-117.52849,34.128808],[-117.5285,34.128796],[-117.528527,34.128771],[-117.528536,34.128762],[-117.528571,34.128735],[-117.528585,34.128725],[-117.5286,34.128714],[-117.528634,34.128694],[-117.528645,34.128687],[-117.528682,34.128667],[-117.528697,34.12866],[-117.528711,34.128652],[-117.528747,34.128634],[-117.528762,34.128628],[-117.528776,34.128621],[-117.528809,34.128608],[-117.52882,34.128603],[-117.528858,34.128589],[-117.528874,34.128584],[-117.528889,34.128579],[-117.528925,34.128568],[-117.528936,34.128564],[-117.528976,34.128554],[-117.528991,34.12855],[-117.529007,34.128546],[-117.529044,34.12854],[-117.529056,34.128537],[-117.529098,34.128528],[-117.529115,34.128524],[-117.529132,34.128521],[-117.529172,34.128516],[-117.529185,34.128514],[-117.52923,34.128512],[-117.529249,34.128511],[-117.529267,34.128511],[-117.529313,34.128516],[-117.529331,34.128518],[-117.529349,34.12852],[-117.529388,34.128524],[-117.529401,34.128525],[-117.529443,34.128525],[-117.529459,34.128525],[-117.529476,34.128525],[-117.529511,34.128525],[-117.529523,34.128524],[-117.529561,34.12852],[-117.529575,34.128517],[-117.52959,34.128515],[-117.529626,34.128507],[-117.529637,34.128504],[-117.529677,34.128493],[-117.529692,34.12849],[-117.529708,34.128486],[-117.52975,34.12848],[-117.529767,34.128478],[-117.529784,34.128476],[-117.529821,34.128475],[-117.529834,34.128475],[-117.529877,34.128483],[-117.529895,34.128487],[-117.529912,34.128492],[-117.529945,34.128513],[-117.529956,34.12852],[-117.529982,34.128551],[-117.529991,34.128564],[-117.53,34.128578],[-117.530012,34.12861],[-117.530016,34.128621],[-117.530026,34.128659],[-117.530029,34.128674],[-117.530033,34.128689],[-117.530039,34.128723],[-117.530041,34.128734],[-117.53005,34.128768],[-117.530053,34.128782],[-117.530057,34.128795],[-117.530071,34.128825],[-117.530078,34.128836],[-117.530085,34.128848],[-117.530107,34.128873],[-117.530115,34.12888],[-117.530147,34.1289],[-117.53016,34.128906],[-117.530174,34.128913],[-117.530206,34.128926],[-117.530216,34.128929],[-117.530252,34.128938],[-117.530266,34.128941],[-117.530281,34.128943],[-117.530316,34.128947],[-117.530328,34.128948],[-117.530367,34.128956],[-117.530382,34.128959],[-117.530397,34.128963],[-117.530434,34.128975],[-117.53045,34.12898],[-117.530465,34.128985],[-117.5305,34.128999],[-117.530511,34.129003],[-117.530548,34.129019],[-117.530562,34.129026],[-117.530577,34.129033],[-117.530608,34.12905],[-117.530619,34.129055],[-117.530654,34.129072],[-117.530669,34.129078],[-117.530683,34.129085],[-117.530714,34.129098],[-117.530724,34.129102],[-117.530756,34.129118],[-117.530768,34.129124],[-117.530781,34.129131],[-117.530813,34.129147],[-117.530824,34.129152],[-117.53086,34.12917],[-117.530874,34.129177],[-117.530888,34.129184],[-117.530922,34.129201],[-117.530935,34.129208],[-117.530949,34.129215],[-117.530982,34.12923],[-117.530993,34.129235],[-117.531031,34.12925],[-117.531047,34.129257],[-117.531062,34.129263],[-117.531095,34.129276],[-117.531106,34.12928],[-117.531141,34.129293],[-117.531155,34.129298],[-117.531169,34.129304],[-117.531201,34.129315],[-117.531211,34.129319],[-117.531244,34.129329],[-117.531258,34.129333],[-117.531271,34.129337],[-117.531306,34.129348],[-117.53132,34.129352],[-117.531334,34.129357],[-117.531366,34.129366],[-117.531377,34.129369],[-117.531412,34.129378],[-117.531426,34.129382],[-117.53144,34.129386],[-117.531471,34.129395],[-117.531482,34.129397],[-117.531519,34.129403],[-117.531535,34.129405],[-117.53155,34.129408],[-117.531585,34.129415],[-117.531597,34.129417],[-117.531635,34.129424],[-117.531651,34.129427],[-117.531666,34.129429],[-117.5317,34.129435],[-117.531712,34.129436],[-117.53175,34.129443],[-117.531764,34.129445],[-117.531779,34.129448],[-117.531816,34.129455],[-117.531831,34.129457],[-117.531846,34.12946],[-117.531879,34.129464],[-117.53189,34.129465],[-117.531926,34.129467],[-117.53194,34.129468],[-117.531954,34.129468],[-117.531985,34.129471],[-117.531996,34.129471],[-117.532032,34.129474],[-117.532046,34.129474],[-117.532061,34.129475],[-117.532092,34.129477],[-117.532102,34.129477],[-117.532136,34.129476],[-117.532151,34.129476],[-117.532165,34.129475],[-117.532202,34.129473],[-117.532216,34.129472],[-117.532231,34.129471],[-117.532262,34.129468],[-117.532272,34.129467],[-117.532307,34.129464],[-117.532322,34.129462],[-117.532336,34.129461],[-117.532371,34.12946],[-117.532383,34.129459],[-117.532423,34.129455],[-117.532439,34.129454],[-117.532455,34.129452],[-117.532491,34.129449],[-117.532503,34.129447],[-117.532542,34.129441],[-117.532556,34.129438],[-117.532571,34.129436],[-117.532605,34.129431],[-117.532616,34.129429],[-117.532653,34.129423],[-117.532668,34.12942],[-117.532683,34.129418],[-117.532721,34.12941],[-117.532736,34.129406],[-117.532752,34.129403],[-117.53279,34.129397],[-117.532802,34.129395],[-117.532842,34.129389],[-117.532858,34.129386],[-117.532873,34.129384],[-117.532908,34.129376],[-117.53292,34.129373],[-117.53296,34.129363],[-117.532976,34.129359],[-117.532992,34.129355],[-117.533029,34.129346],[-117.533041,34.129343],[-117.533081,34.129332],[-117.533098,34.129328],[-117.533114,34.129324],[-117.533155,34.129315],[-117.53317,34.129311],[-117.533186,34.129307],[-117.533221,34.129298],[-117.533232,34.129294],[-117.53327,34.12928],[-117.533284,34.129273],[-117.533299,34.129267],[-117.533331,34.129255],[-117.533342,34.129251],[-117.533378,34.129244],[-117.533394,34.129242],[-117.533409,34.129241],[-117.533443,34.129246],[-117.533454,34.129248],[-117.533491,34.129247],[-117.533505,34.129245],[-117.53352,34.129242],[-117.533553,34.129231],[-117.533564,34.129227],[-117.533598,34.129216],[-117.53361,34.129211],[-117.533623,34.129207],[-117.533658,34.129196],[-117.533672,34.129191],[-117.533686,34.129186],[-117.533718,34.129176],[-117.533728,34.129172],[-117.533764,34.129159],[-117.533778,34.129153],[-117.533792,34.129148],[-117.533825,34.129137],[-117.533835,34.129133],[-117.533872,34.129118],[-117.533886,34.129113],[-117.533901,34.129107],[-117.533935,34.129094],[-117.533946,34.12909],[-117.533981,34.129077],[-117.533994,34.129071],[-117.534008,34.129066],[-117.534042,34.129055],[-117.534055,34.12905],[-117.534069,34.129046],[-117.534101,34.129034],[-117.534111,34.12903],[-117.534145,34.129018],[-117.534159,34.129012],[-117.534173,34.129007],[-117.534205,34.128996],[-117.534216,34.128992],[-117.534253,34.128982],[-117.534267,34.128979],[-117.534282,34.128975],[-117.534317,34.128969],[-117.534328,34.128967],[-117.534369,34.128961],[-117.534386,34.128958],[-117.534403,34.128956],[-117.534442,34.128952],[-117.534455,34.12895],[-117.534496,34.128946],[-117.534512,34.128944],[-117.534529,34.128943],[-117.534572,34.128941],[-117.534589,34.12894],[-117.534606,34.12894],[-117.534643,34.128943],[-117.534656,34.128944],[-117.534698,34.12895],[-117.534715,34.128953],[-117.534731,34.128956],[-117.534766,34.128966],[-117.534779,34.128969],[-117.53482,34.128981],[-117.534836,34.128986],[-117.534852,34.12899],[-117.534888,34.129],[-117.5349,34.129003],[-117.534939,34.129011],[-117.534955,34.129014],[-117.53497,34.129017],[-117.535009,34.129023],[-117.535025,34.129025],[-117.53504,34.129027],[-117.535074,34.12903],[-117.535085,34.129031],[-117.535123,34.129032],[-117.535137,34.129033],[-117.535152,34.129033],[-117.535185,34.129031],[-117.535195,34.12903],[-117.53523,34.129025],[-117.535244,34.129024],[-117.535258,34.129022],[-117.535289,34.129017],[-117.535299,34.129015],[-117.535332,34.129008],[-117.535346,34.129005],[-117.535359,34.129002],[-117.53539,34.128997],[-117.5354,34.128995],[-117.535436,34.128989],[-117.535451,34.128985],[-117.535465,34.128982],[-117.535503,34.128973],[-117.535519,34.128969],[-117.535534,34.128966],[-117.535569,34.128959],[-117.535581,34.128957],[-117.53562,34.128954],[-117.535636,34.128954],[-117.535651,34.128954],[-117.535685,34.128957],[-117.535697,34.128958],[-117.535737,34.128958],[-117.535753,34.128957],[-117.53577,34.128957],[-117.535808,34.128959],[-117.53582,34.12896],[-117.535861,34.128968],[-117.535877,34.128972],[-117.535893,34.128975],[-117.535932,34.128979],[-117.535948,34.12898],[-117.535963,34.128981],[-117.535997,34.128982],[-117.536008,34.128982],[-117.536046,34.128982],[-117.536061,34.128982],[-117.536076,34.128982],[-117.53611,34.12898],[-117.536121,34.128979],[-117.536159,34.128974],[-117.536173,34.128973],[-117.536188,34.128971],[-117.536221,34.128966],[-117.536232,34.128964],[-117.536267,34.128955],[-117.536281,34.128951],[-117.536295,34.128947],[-117.536326,34.128941],[-117.536336,34.128939],[-117.536371,34.128934],[-117.536384,34.128933],[-117.536398,34.128932],[-117.536427,34.128933],[-117.536436,34.128935],[-117.536446,34.128936],[-117.536454,34.128939],[-117.536454,34.128945],[-117.536446,34.128953],[-117.536431,34.128961],[-117.536414,34.128966],[-117.536398,34.128969],[-117.536384,34.128971],[-117.536371,34.128974],[-117.536359,34.128978],[-117.536348,34.128984],[-117.536337,34.128987],[-117.536327,34.128989],[-117.536315,34.128991],[-117.536302,34.128993],[-117.536289,34.128996],[-117.536275,34.129001],[-117.536261,34.129007],[-117.536245,34.129013],[-117.536206,34.129018],[-117.536189,34.129019],[-117.536171,34.12902],[-117.536154,34.129021],[-117.536136,34.129022],[-117.536101,34.129024],[-117.536088,34.129024],[-117.536047,34.129024],[-117.536029,34.129025],[-117.536012,34.129025],[-117.535972,34.129027],[-117.535958,34.129027],[-117.535907,34.129021],[-117.535883,34.129018],[-117.535859,34.129014],[-117.535825,34.129007],[-117.535813,34.129005],[-117.535773,34.129],[-117.535758,34.128999],[-117.535742,34.128998],[-117.535702,34.129],[-117.535687,34.129002],[-117.535671,34.129003],[-117.535634,34.129007],[-117.535621,34.129008],[-117.535581,34.129013],[-117.535565,34.129015],[-117.535549,34.129017],[-117.535512,34.129022],[-117.535499,34.129024],[-117.53546,34.129034],[-117.535445,34.129039],[-117.53543,34.129043],[-117.535397,34.129054],[-117.535386,34.129057],[-117.535348,34.129067],[-117.535333,34.129071],[-117.535317,34.129074],[-117.535275,34.129078],[-117.535258,34.129079],[-117.53524,34.12908],[-117.535198,34.129082],[-117.535183,34.129083],[-117.535136,34.129086],[-117.535117,34.129086],[-117.535099,34.129087],[-117.535059,34.129086],[-117.535046,34.129085],[-117.535005,34.129083],[-117.534989,34.129082],[-117.534972,34.129081],[-117.534934,34.129077],[-117.534921,34.129075],[-117.534879,34.129065],[-117.534861,34.129061],[-117.534844,34.129057],[-117.534805,34.129047],[-117.534792,34.129043],[-117.53475,34.12903],[-117.534732,34.129024],[-117.534715,34.129019],[-117.534673,34.129006],[-117.534656,34.129001],[-117.53464,34.128996],[-117.534602,34.12899],[-117.53459,34.128988],[-117.534546,34.128988],[-117.534528,34.128988],[-117.53451,34.128989],[-117.534472,34.128991],[-117.534459,34.128991],[-117.534419,34.128995],[-117.534404,34.128998],[-117.534388,34.129],[-117.534352,34.129008],[-117.53434,34.129011],[-117.534302,34.129024],[-117.534287,34.129029],[-117.534272,34.129034],[-117.534243,34.129042],[-117.534235,34.129044],[-117.534228,34.129046],[-117.534175,34.129063],[-117.534164,34.129067],[-117.534129,34.129083],[-117.534116,34.12909],[-117.534102,34.129097],[-117.534069,34.129113],[-117.534057,34.129117],[-117.53402,34.129129],[-117.534004,34.129132],[-117.533989,34.129136],[-117.533954,34.129145],[-117.533942,34.129148],[-117.533902,34.12916],[-117.533887,34.129166],[-117.533871,34.129171],[-117.533838,34.129183],[-117.533826,34.129187],[-117.533789,34.1292],[-117.533774,34.129205],[-117.533759,34.12921],[-117.533722,34.129221],[-117.533708,34.129225],[-117.533693,34.129229],[-117.53366,34.12924],[-117.533649,34.129244],[-117.533611,34.129257],[-117.533595,34.129262],[-117.53358,34.129267],[-117.533545,34.129277],[-117.533533,34.12928],[-117.533493,34.129289],[-117.533477,34.129292],[-117.533461,34.129296],[-117.533423,34.129303],[-117.53341,34.129304],[-117.533365,34.129307],[-117.533347,34.129308],[-117.533329,34.129309],[-117.533285,34.12932],[-117.533269,34.129327],[-117.533252,34.129333],[-117.533218,34.129348],[-117.533207,34.129352],[-117.533168,34.129366],[-117.533151,34.129372],[-117.533135,34.129377],[-117.533099,34.129389],[-117.533086,34.129392],[-117.533046,34.129404],[-117.533029,34.129409],[-117.533013,34.129414],[-117.532976,34.129422],[-117.532963,34.129424],[-117.532924,34.129431],[-117.532908,34.129433],[-117.532893,34.129436],[-117.532858,34.129442],[-117.532846,34.129443],[-117.532806,34.129447],[-117.53279,34.12945],[-117.532774,34.129452],[-117.532734,34.129461],[-117.532717,34.129465],[-117.532701,34.129469],[-117.532666,34.129478],[-117.532654,34.12948],[-117.532614,34.129486],[-117.532599,34.129488],[-117.532583,34.12949],[-117.532547,34.129493],[-117.532535,34.129494],[-117.532497,34.129497],[-117.532483,34.129499],[-117.532468,34.1295],[-117.532432,34.129505],[-117.532419,34.129506],[-117.532375,34.129509],[-117.532356,34.129509],[-117.532338,34.12951],[-117.532293,34.12951],[-117.532276,34.129509],[-117.532258,34.129509],[-117.532218,34.129508],[-117.532205,34.129508],[-117.532165,34.129512],[-117.532149,34.129514],[-117.532133,34.129516],[-117.532097,34.12952],[-117.532084,34.129521],[-117.532041,34.129521],[-117.532024,34.12952],[-117.532007,34.129519],[-117.531969,34.129515],[-117.531957,34.129513],[-117.531913,34.129507],[-117.531896,34.129504],[-117.531878,34.129502],[-117.531839,34.129498],[-117.531826,34.129496],[-117.531782,34.129492],[-117.531764,34.12949],[-117.531747,34.129488],[-117.531704,34.129481],[-117.531687,34.129478],[-117.53167,34.129475],[-117.531633,34.129469],[-117.531621,34.129466],[-117.53158,34.129459],[-117.531563,34.129457],[-117.531547,34.129454],[-117.531508,34.129448],[-117.531496,34.129446],[-117.531455,34.129437],[-117.53144,34.129433],[-117.531424,34.129429],[-117.531384,34.129422],[-117.531371,34.12942],[-117.531329,34.129412],[-117.531313,34.129409],[-117.531297,34.129406],[-117.531258,34.129397],[-117.531241,34.129392],[-117.531225,34.129388],[-117.53119,34.129378],[-117.531179,34.129374],[-117.531141,34.129362],[-117.531127,34.129356],[-117.531112,34.129351],[-117.531076,34.129338],[-117.531065,34.129333],[-117.531029,34.129316],[-117.531016,34.12931],[-117.531003,34.129303],[-117.530975,34.12929],[-117.530966,34.129286],[-117.530935,34.129271],[-117.530923,34.129265],[-117.530911,34.129258],[-117.530881,34.12924],[-117.530871,34.129233],[-117.530838,34.129214],[-117.530826,34.129206],[-117.530813,34.129199],[-117.530781,34.129184],[-117.530768,34.129177],[-117.530754,34.129171],[-117.530722,34.129157],[-117.530712,34.129151],[-117.530677,34.12913],[-117.530663,34.129121],[-117.530649,34.129113],[-117.530618,34.129096],[-117.530608,34.12909],[-117.530575,34.129073],[-117.530561,34.129067],[-117.530548,34.129061],[-117.530518,34.129048],[-117.530508,34.129044],[-117.530471,34.129031],[-117.530456,34.129027],[-117.53044,34.129022],[-117.530398,34.129011],[-117.530382,34.129008],[-117.530365,34.129004],[-117.530329,34.128996],[-117.530317,34.128994],[-117.530277,34.128986],[-117.53026,34.128982],[-117.530244,34.128979],[-117.530206,34.128968],[-117.530194,34.128963],[-117.530155,34.128947],[-117.53014,34.128941],[-117.530125,34.128934],[-117.530095,34.128917],[-117.530086,34.12891],[-117.530057,34.128887],[-117.530046,34.128876],[-117.530035,34.128866],[-117.530017,34.128838],[-117.530012,34.128828],[-117.529998,34.128795],[-117.529994,34.128782],[-117.529989,34.128769],[-117.52998,34.128735],[-117.529977,34.12872],[-117.529974,34.128706],[-117.52997,34.128676],[-117.529969,34.128666],[-117.52996,34.128632],[-117.529955,34.128619],[-117.52995,34.128605],[-117.529931,34.128576],[-117.529925,34.128566],[-117.529899,34.12854],[-117.529887,34.128532],[-117.529876,34.128523],[-117.529847,34.12851],[-117.529837,34.128507],[-117.529799,34.128505],[-117.529785,34.128507],[-117.52977,34.128508],[-117.52975,34.128513],[-117.52973,34.128519],[-117.529709,34.128524],[-117.529677,34.128533],[-117.529666,34.128535],[-117.529631,34.128545],[-117.529618,34.12855],[-117.529604,34.128554],[-117.529572,34.128565],[-117.529562,34.128568],[-117.529533,34.128582],[-117.529523,34.128588],[-117.529513,34.128595],[-117.529506,34.128617],[-117.529506,34.128626],[-117.52951,34.128644],[-117.529516,34.128662],[-117.529522,34.128681],[-117.529529,34.128708],[-117.529531,34.128717],[-117.529535,34.128748],[-117.529537,34.128762],[-117.529538,34.128775],[-117.52954,34.12881],[-117.52954,34.128824],[-117.52954,34.128838],[-117.529539,34.128868],[-117.529538,34.128878],[-117.529538,34.128911],[-117.529537,34.128924],[-117.529537,34.128937],[-117.529535,34.128965],[-117.529534,34.128974],[-117.529532,34.129004],[-117.52953,34.129017],[-117.529529,34.129029],[-117.529527,34.129057],[-117.529526,34.129067],[-117.529521,34.129097],[-117.529517,34.12911],[-117.529514,34.129122],[-117.529491,34.129145],[-117.52948,34.129153],[-117.529468,34.12916],[-117.529432,34.129168],[-117.52942,34.12917],[-117.529394,34.129186],[-117.529389,34.129194],[-117.529384,34.129203],[-117.529396,34.129239],[-117.529401,34.129256],[-117.529407,34.129273],[-117.529412,34.12929],[-117.529417,34.129307],[-117.529419,34.129342],[-117.52942,34.129354],[-117.529424,34.129392],[-117.529426,34.129406],[-117.529428,34.129421],[-117.529427,34.129454],[-117.529425,34.129465],[-117.529409,34.129503],[-117.529401,34.129517],[-117.529393,34.129532],[-117.529376,34.129568],[-117.529371,34.129582],[-117.529365,34.129596],[-117.529361,34.129632],[-117.52936,34.129643],[-117.529363,34.129678],[-117.529366,34.129691],[-117.529368,34.129705],[-117.529376,34.129736],[-117.52938,34.129746],[-117.529393,34.129779],[-117.529398,34.129792],[-117.529404,34.129805],[-117.529418,34.129832],[-117.529424,34.129841],[-117.529444,34.12987],[-117.529452,34.129882],[-117.52946,34.129893],[-117.529478,34.129922],[-117.529484,34.129935],[-117.529491,34.129947],[-117.5295,34.129977],[-117.529502,34.129987],[-117.529496,34.130019],[-117.529491,34.130031],[-117.529487,34.130043],[-117.529483,34.130069],[-117.529485,34.130077],[-117.529506,34.130103],[-117.529519,34.130113],[-117.529531,34.130122],[-117.529562,34.130139],[-117.529572,34.130144],[-117.529603,34.130161],[-117.529614,34.130167],[-117.529626,34.130174],[-117.529653,34.130189],[-117.529662,34.130193],[-117.529694,34.130199],[-117.529706,34.1302],[-117.529719,34.1302],[-117.529737,34.130193],[-117.529756,34.130183],[-117.529776,34.130171],[-117.529806,34.130157],[-117.529816,34.130152],[-117.529854,34.13014],[-117.529869,34.130137],[-117.529885,34.130133],[-117.529921,34.13013],[-117.529933,34.130129],[-117.529973,34.13013],[-117.529988,34.130131],[-117.530004,34.130132],[-117.530041,34.130137],[-117.530054,34.130138],[-117.530094,34.130144],[-117.530109,34.130146],[-117.530125,34.130148],[-117.530163,34.130156],[-117.530177,34.13016],[-117.530191,34.130164],[-117.530221,34.130176],[-117.530231,34.130179],[-117.530269,34.130186],[-117.530286,34.130188],[-117.530302,34.130189],[-117.530341,34.130189],[-117.530353,34.130189],[-117.530396,34.130191],[-117.530412,34.130193],[-117.530429,34.130195],[-117.530465,34.130206],[-117.530476,34.130211],[-117.53051,34.130233],[-117.530523,34.130242],[-117.530535,34.130252],[-117.530562,34.130274],[-117.530571,34.13028],[-117.5306,34.130302],[-117.530612,34.13031],[-117.530624,34.130318],[-117.530653,34.130336],[-117.530665,34.130344],[-117.530677,34.130351],[-117.530706,34.130365],[-117.530717,34.130369],[-117.530755,34.13038],[-117.53077,34.130382],[-117.530786,34.130385],[-117.530821,34.130387],[-117.530832,34.130386],[-117.530869,34.130385],[-117.530884,34.130384],[-117.530899,34.130383],[-117.530934,34.130377],[-117.530945,34.130374],[-117.530982,34.130362],[-117.530996,34.130356],[-117.53101,34.130351],[-117.531047,34.130343],[-117.531062,34.13034],[-117.531078,34.130338],[-117.531113,34.130337],[-117.531124,34.130336],[-117.531162,34.130334],[-117.531177,34.130333],[-117.531193,34.130332],[-117.53123,34.130333],[-117.531243,34.130334],[-117.531282,34.130344],[-117.531297,34.13035],[-117.531312,34.130356],[-117.531334,34.130381],[-117.53134,34.13039],[-117.531351,34.130426],[-117.531355,34.130442],[-117.531358,34.130457],[-117.531365,34.13049],[-117.531368,34.130501],[-117.531377,34.130536],[-117.531382,34.130549],[-117.531386,34.130563],[-117.531397,34.130597],[-117.531401,34.13061],[-117.531405,34.130624],[-117.531414,34.130653],[-117.531417,34.130662],[-117.531431,34.13069],[-117.531438,34.130701],[-117.531445,34.130711],[-117.531471,34.130721],[-117.531482,34.130722],[-117.531524,34.130715],[-117.531541,34.13071],[-117.531558,34.130706],[-117.531594,34.130698],[-117.531606,34.130695],[-117.531646,34.130688],[-117.531662,34.130685],[-117.531678,34.130682],[-117.53172,34.130674],[-117.531737,34.130671],[-117.531754,34.130667],[-117.531792,34.130658],[-117.531805,34.130655],[-117.531848,34.130644],[-117.531865,34.13064],[-117.531882,34.130636],[-117.531919,34.130627],[-117.531931,34.130624],[-117.531973,34.130615],[-117.53199,34.130612],[-117.532007,34.130608],[-117.532045,34.130599],[-117.532058,34.130595],[-117.532101,34.130585],[-117.532117,34.130582],[-117.532134,34.130578],[-117.53217,34.130572],[-117.532182,34.130569],[-117.532224,34.130561],[-117.532241,34.130558],[-117.532257,34.130555],[-117.532299,34.130547],[-117.532316,34.130544],[-117.532332,34.130541],[-117.532368,34.130536],[-117.53238,34.130534],[-117.53242,34.130529],[-117.532436,34.130526],[-117.532452,34.130524],[-117.53249,34.130516],[-117.532502,34.130512],[-117.532544,34.130501],[-117.53256,34.130498],[-117.532577,34.130494],[-117.532615,34.130487],[-117.532628,34.130484],[-117.532672,34.130476],[-117.53269,34.130473],[-117.532708,34.13047],[-117.532752,34.130464],[-117.53277,34.130461],[-117.532788,34.130459],[-117.532828,34.130454],[-117.53284,34.130452],[-117.532878,34.130443],[-117.532891,34.130438],[-117.532905,34.130433],[-117.532927,34.130413],[-117.532933,34.130404],[-117.532938,34.130369],[-117.532937,34.130355],[-117.532937,34.13034],[-117.532935,34.130309],[-117.532935,34.130298],[-117.532933,34.130263],[-117.532932,34.13025],[-117.532931,34.130236],[-117.532926,34.130207],[-117.532924,34.130197],[-117.532918,34.130161],[-117.532917,34.130147],[-117.532915,34.130132],[-117.532916,34.130095],[-117.532917,34.130081],[-117.532918,34.130066],[-117.532923,34.130034],[-117.532925,34.130023],[-117.532933,34.129988],[-117.532936,34.129974],[-117.53294,34.12996],[-117.532954,34.129929],[-117.532958,34.129919],[-117.532975,34.129886],[-117.532982,34.129872],[-117.532989,34.129859],[-117.533006,34.12983],[-117.533011,34.12982],[-117.533031,34.129788],[-117.533039,34.129774],[-117.533047,34.129761],[-117.533067,34.129727],[-117.533074,34.129714],[-117.533082,34.1297],[-117.533096,34.12967],[-117.5331,34.129659],[-117.533118,34.129627],[-117.533126,34.129615],[-117.533134,34.129602],[-117.53315,34.129571],[-117.533154,34.129559],[-117.533162,34.129522],[-117.533164,34.129507],[-117.533166,34.129492],[-117.533169,34.129459],[-117.533169,34.129448],[-117.533165,34.129414],[-117.533162,34.129402],[-117.533159,34.129389],[-117.533139,34.129366],[-117.533131,34.12936],[-117.533093,34.129358],[-117.533076,34.129362],[-117.53306,34.129365],[-117.533036,34.129377],[-117.533013,34.129389],[-117.53299,34.1294],[-117.532956,34.129413],[-117.532945,34.129417],[-117.532906,34.129427],[-117.53289,34.129431],[-117.532874,34.129434],[-117.532838,34.129442],[-117.532826,34.129444],[-117.532784,34.129453],[-117.532766,34.129456],[-117.532749,34.12946],[-117.53271,34.129469],[-117.532697,34.129472],[-117.532657,34.129481],[-117.532641,34.129485],[-117.532625,34.129488],[-117.532583,34.129494],[-117.532566,34.129497],[-117.532549,34.129499],[-117.532509,34.129505],[-117.532495,34.129506],[-117.532454,34.129512],[-117.532437,34.129513],[-117.532421,34.129515],[-117.532383,34.129518],[-117.53237,34.129518],[-117.532326,34.12952],[-117.532309,34.129522],[-117.532291,34.129523],[-117.532251,34.129524],[-117.532238,34.129524],[-117.532193,34.129523],[-117.532176,34.129522],[-117.532158,34.129522],[-117.532119,34.129521],[-117.532105,34.129521],[-117.532061,34.12952],[-117.532045,34.12952],[-117.532028,34.12952],[-117.531986,34.129519],[-117.53197,34.129519],[-117.531953,34.129518],[-117.531913,34.129516],[-117.531899,34.129514],[-117.531853,34.12951],[-117.531834,34.129507],[-117.531816,34.129505],[-117.531775,34.129499],[-117.531761,34.129497],[-117.531713,34.12949],[-117.531694,34.129487],[-117.531675,34.129484],[-117.531633,34.129476],[-117.531619,34.129473],[-117.531571,34.129462],[-117.531552,34.129459],[-117.531533,34.129455],[-117.531484,34.129446],[-117.531465,34.129442],[-117.531445,34.129438],[-117.531402,34.129429],[-117.531388,34.129426],[-117.531341,34.129416],[-117.531322,34.129412],[-117.531302,34.129408],[-117.531256,34.129398],[-117.531241,34.129394],[-117.531191,34.12938],[-117.531171,34.129373],[-117.531151,34.129367],[-117.531106,34.129352],[-117.531092,34.129346],[-117.531044,34.129326],[-117.531024,34.129318],[-117.531005,34.129309],[-117.530963,34.129287],[-117.53095,34.129279],[-117.530905,34.129252],[-117.530887,34.129241],[-117.530869,34.12923],[-117.530822,34.129203],[-117.530803,34.129192],[-117.530784,34.129181],[-117.530741,34.129157],[-117.530728,34.129149],[-117.530684,34.129123],[-117.530666,34.129113],[-117.530649,34.129103],[-117.53061,34.129083],[-117.530597,34.129076],[-117.530555,34.129053],[-117.530537,34.129044],[-117.53052,34.129035],[-117.530481,34.12902],[-117.530468,34.129016],[-117.530423,34.129006],[-117.530403,34.129001],[-117.530384,34.128997],[-117.530333,34.128986],[-117.530312,34.128982],[-117.530292,34.128978],[-117.530247,34.128972],[-117.530233,34.12897],[-117.530187,34.128959],[-117.530169,34.128952],[-117.53015,34.128946],[-117.53011,34.128925],[-117.530098,34.128917],[-117.53006,34.128885],[-117.530046,34.128872],[-117.530033,34.128858],[-117.530012,34.128823],[-117.530006,34.128811],[-117.529993,34.12877],[-117.529989,34.128754],[-117.529985,34.128738],[-117.529977,34.128701],[-117.529974,34.128688],[-117.529961,34.128649],[-117.529954,34.128635],[-117.529948,34.12862],[-117.529925,34.128586],[-117.529915,34.128572],[-117.529904,34.128558],[-117.52987,34.128531],[-117.529858,34.128522],[-117.529808,34.128507],[-117.529788,34.128505],[-117.529768,34.128502],[-117.529727,34.12851],[-117.529713,34.128514],[-117.529671,34.128529],[-117.529653,34.128535],[-117.529636,34.12854],[-117.529595,34.128551],[-117.529581,34.128554],[-117.529532,34.128565],[-117.529512,34.128568],[-117.529493,34.128572],[-117.529444,34.128579],[-117.529425,34.128581],[-117.529405,34.128583],[-117.52936,34.128584],[-117.529344,34.128584],[-117.529293,34.12858],[-117.529273,34.128578],[-117.529252,34.128576],[-117.529203,34.128571],[-117.529187,34.128569],[-117.529136,34.12857],[-117.529117,34.128571],[-117.529097,34.128573],[-117.529053,34.128582],[-117.529038,34.128585],[-117.528987,34.128598],[-117.528966,34.128604],[-117.528946,34.128609],[-117.528904,34.128624],[-117.52889,34.128629],[-117.528846,34.128648],[-117.528828,34.128657],[-117.528811,34.128665],[-117.528769,34.128687],[-117.528751,34.128696],[-117.528734,34.128704],[-117.528697,34.128726],[-117.528685,34.128733],[-117.528647,34.128759],[-117.528632,34.128769],[-117.528617,34.128779],[-117.528581,34.128803],[-117.52857,34.128811],[-117.528538,34.12884],[-117.528527,34.128853],[-117.528515,34.128865],[-117.528492,34.128896],[-117.528484,34.128906],[-117.528457,34.128942],[-117.528446,34.128956],[-117.528435,34.128971],[-117.52841,34.129008],[-117.528399,34.129023],[-117.528389,34.129038],[-117.528367,34.129071],[-117.528359,34.129082],[-117.528338,34.129114],[-117.528331,34.129126],[-117.528324,34.129138],[-117.528317,34.129151],[-117.528312,34.12916],[-117.528309,34.129165],[-117.528309,34.129165]]}}]}